$$SOE
2459580.500000000, A.D. 2022-Jan-01 00:00:00.0000, 8.227150980963522E+07, -7.534863347398758E+08, 3.241793602515540E+07,
2459587.500000000, A.D. 2022-Jan-08 00:00:00.0000, 9.000078754360919E+07, -7.530143857650194E+08, 3.471989183371711E+07,
2459594.500000000, A.D. 2022-Jan-15 00:00:00.0000, 9.772007164867540E+07, -7.524588325455909E+08, 3.701799164515644E+07,
2459601.500000000, A.D. 2022-Jan-22 00:00:00.0000, 1.054285309647818E+08, -7.518199063275566E+08, 3.931198815066624E+07,
2459608.500000000, A.D. 2022-Jan-29 00:00:00.0000, 1.131253395535491E+08, -7.510978448006032E+08, 4.160163563027838E+07,
2459615.500000000, A.D. 2022-Feb-05 00:00:00.0000, 1.208096745704999E+08, -7.502928926663747E+08, 4.388669012328511E+07,
2459622.500000000, A.D. 2022-Feb-12 00:00:00.0000, 1.284807163085898E+08, -7.494053032743341E+08, 4.616690931294250E+07,
2459629.500000000, A.D. 2022-Feb-19 00:00:00.0000, 1.361376490883355E+08, -7.484353389564668E+08, 4.844205244048139E+07,
2459636.500000000, A.D. 2022-Feb-26 00:00:00.0000, 1.437796616831712E+08, -7.473832707839873E+08, 5.071188030946997E+07,
2459643.500000000, A.D. 2022-Mar-05 00:00:00.0000, 1.514059474392797E+08, -7.462493783629694E+08, 5.297615531526414E+07,
2459650.500000000, A.D. 2022-Mar-12 00:00:00.0000, 1.590157043117133E+08, -7.450339497345818E+08, 5.523464147355029E+07,
2459657.500000000, A.D. 2022-Mar-19 00:00:00.0000, 1.666081348878782E+08, -7.437372813517706E+08, 5.748710444345325E+07,
2459664.500000000, A.D. 2022-Mar-26 00:00:00.0000, 1.741824464208170E+08, -7.423596781381739E+08, 5.973331154238388E+07,
2459671.500000000, A.D. 2022-Apr-02 00:00:00.0000, 1.817378509401385E+08, -7.409014536849554E+08, 6.197303174158779E+07,
2459678.500000000, A.D. 2022-Apr-09 00:00:00.0000, 1.892735657126882E+08, -7.393629305806019E+08, 6.420603561763978E+07,
2459685.500000000, A.D. 2022-Apr-16 00:00:00.0000, 1.967888144100730E+08, -7.377444402195568E+08, 6.643209528043151E+07,
2459692.500000000, A.D. 2022-Apr-23 00:00:00.0000, 2.042828277140349E+08, -7.360463210053045E+08, 6.865098448254415E+07,
2459699.500000000, A.D. 2022-Apr-30 00:00:00.0000, 2.117548414893403E+08, -7.342689171928478E+08, 7.086247889794433E+07,
2459706.500000000, A.D. 2022-May-07 00:00:00.0000, 2.192040955869268E+08, -7.324125803436933E+08, 7.306635612765115E+07,
2459713.500000000, A.D. 2022-May-14 00:00:00.0000, 2.266298346669032E+08, -7.304776703550000E+08, 7.526239555315754E+07,
2459720.500000000, A.D. 2022-May-21 00:00:00.0000, 2.340313090104998E+08, -7.284645553042277E+08, 7.745037828592139E+07,
2459727.500000000, A.D. 2022-May-28 00:00:00.0000, 2.414077748422740E+08, -7.263736110681059E+08, 7.963008717853028E+07,
2459734.500000000, A.D. 2022-Jun-04 00:00:00.0000, 2.487584944397642E+08, -7.242052210288110E+08, 8.180130684661973E+07,
2459741.500000000, A.D. 2022-Jun-11 00:00:00.0000, 2.560827361753087E+08, -7.219597758651605E+08, 8.396382368852523E+07,
2459748.500000000, A.D. 2022-Jun-18 00:00:00.0000, 2.633797745287210E+08, -7.196376734154490E+08, 8.611742590028906E+07,
2459755.500000000, A.D. 2022-Jun-25 00:00:00.0000, 2.706488901002484E+08, -7.172393186448969E+08, 8.826190348069939E+07,
2459762.500000000, A.D. 2022-Jul-02 00:00:00.0000, 2.778893697578762E+08, -7.147651237831967E+08, 9.039704820879906E+07,
2459769.500000000, A.D. 2022-Jul-09 00:00:00.0000, 2.851005073093120E+08, -7.122155084549776E+08, 9.252265357266709E+07,
2459776.500000000, A.D. 2022-Jul-16 00:00:00.0000, 2.922816046435181E+08, -7.095908987202978E+08, 9.463851474320740E+07,
2459783.500000000, A.D. 2022-Jul-23 00:00:00.0000, 2.994319711433125E+08, -7.068917249473826E+08, 9.674442880114046E+07,
2459790.500000000, A.D. 2022-Jul-30 00:00:00.0000, 3.065509214530306E+08, -7.041184218713018E+08, 9.884019493555704E+07,
2459797.500000000, A.D. 2022-Aug-06 00:00:00.0000, 3.136377752001133E+08, -7.012714301902404E+08, 1.009256143370717E+08,
2459804.500000000, A.D. 2022-Aug-13 00:00:00.0000, 3.206918578476193E+08, -6.983511969449742E+08, 1.030004900864509E+08,
2459811.500000000, A.D. 2022-Aug-20 00:00:00.0000, 3.277125011083987E+08, -6.953581751850739E+08, 1.050646271418101E+08,
2459818.500000000, A.D. 2022-Aug-27 00:00:00.0000, 3.346990429890924E+08, -6.922928236484812E+08, 1.071178323590071E+08,
2459825.500000000, A.D. 2022-Sep-03 00:00:00.0000, 3.416508277118980E+08, -6.891556065650421E+08, 1.091599145136534E+08,
2459832.500000000, A.D. 2022-Sep-10 00:00:00.0000, 3.485672056042011E+08, -6.859469935601109E+08, 1.111906843185678E+08,
2459839.500000000, A.D. 2022-Sep-17 00:00:00.0000, 3.554475329854829E+08, -6.826674596599635E+08, 1.132099544338775E+08,
2459846.500000000, A.D. 2022-Sep-24 00:00:00.0000, 3.622911721119641E+08, -6.793174854498837E+08, 1.152175394600336E+08,
2459853.500000000, A.D. 2022-Oct-01 00:00:00.0000, 3.690974914190317E+08, -6.758975574072108E+08, 1.172132558897946E+08,
2459860.500000000, A.D. 2022-Oct-08 00:00:00.0000, 3.758658664688650E+08, -6.724081678873461E+08, 1.191969220243366E+08,
2459867.500000000, A.D. 2022-Oct-15 00:00:00.0000, 3.825956806714919E+08, -6.688498135637044E+08, 1.211683580367888E+08,
2459874.500000000, A.D. 2022-Oct-22 00:00:00.0000, 3.892863235975927E+08, -6.652229940055780E+08, 1.231273862454417E+08,
2459881.500000000, A.D. 2022-Oct-29 00:00:00.0000, 3.959371893807904E+08, -6.615282129872591E+08, 1.250738311552302E+08,
2459888.500000000, A.D. 2022-Nov-05 00:00:00.0000, 4.025476773088655E+08, -6.577659797871901E+08, 1.270075192986525E+08,
2459895.500000000, A.D. 2022-Nov-12 00:00:00.0000, 4.091171926392104E+08, -6.539368092100273E+08, 1.289282791597272E+08,
2459902.500000000, A.D. 2022-Nov-19 00:00:00.0000, 4.156451469191904E+08, -6.500412212858629E+08, 1.308359411688559E+08,
2459909.500000000, A.D. 2022-Nov-26 00:00:00.0000, 4.221309580736240E+08, -6.460797410439993E+08, 1.327303377119536E+08,
2459916.500000000, A.D. 2022-Dec-03 00:00:00.0000, 4.285740504253677E+08, -6.420528983728477E+08, 1.346113031375903E+08,
2459923.500000000, A.D. 2022-Dec-10 00:00:00.0000, 4.349738546944554E+08, -6.379612279472607E+08, 1.364786737594379E+08,
2459930.500000000, A.D. 2022-Dec-17 00:00:00.0000, 4.413298080004161E+08, -6.338052692482300E+08, 1.383322878496664E+08,
2459937.500000000, A.D. 2022-Dec-24 00:00:00.0000, 4.476413539770898E+08, -6.295855667406471E+08, 1.401719856078327E+08,
2459944.500000000, A.D. 2022-Dec-31 00:00:00.0000, 4.539079433576099E+08, -6.253026701014706E+08, 1.419976090812395E+08,
2459951.500000000, A.D. 2023-Jan-07 00:00:00.0000, 4.601290351524097E+08, -6.209571335358539E+08, 1.438090021042131E+08,
2459958.500000000, A.D. 2023-Jan-14 00:00:00.0000, 4.663040964533613E+08, -6.165495136845179E+08, 1.456060104774480E+08,
2459965.500000000, A.D. 2023-Jan-21 00:00:00.0000, 4.724326002192932E+08, -6.120803692950276E+08, 1.473884821873522E+08,
2459972.500000000, A.D. 2023-Jan-28 00:00:00.0000, 4.785140247109237E+08, -6.075502628523612E+08, 1.491562673130184E+08,
2459979.500000000, A.D. 2023-Feb-04 00:00:00.0000, 4.845478543668454E+08, -6.029597611410732E+08, 1.509092178875099E+08,
2459986.500000000, A.D. 2023-Feb-11 00:00:00.0000, 4.905335803254706E+08, -5.983094349327525E+08, 1.526471878624946E+08,
2459993.500000000, A.D. 2023-Feb-18 00:00:00.0000, 4.964707005297443E+08, -5.935998586219491E+08, 1.543700331149253E+08,
2460000.500000000, A.D. 2023-Feb-25 00:00:00.0000, 5.023587196775020E+08, -5.888316099722342E+08, 1.560776114585924E+08,
2460007.500000000, A.D. 2023-Mar-04 00:00:00.0000, 5.081971491197834E+08, -5.840052699533776E+08, 1.577697826528715E+08,
2460014.500000000, A.D. 2023-Mar-11 00:00:00.0000, 5.139855067358577E+08, -5.791214226688734E+08, 1.594464084062485E+08,
2460021.500000000, A.D. 2023-Mar-18 00:00:00.0000, 5.197233168321835E+08, -5.741806554229990E+08, 1.611073523664360E+08,
2460028.500000000, A.D. 2023-Mar-25 00:00:00.0000, 5.254101102688038E+08, -5.691835589742794E+08, 1.627524800747619E+08,
2460035.500000000, A.D. 2023-Apr-01 00:00:00.0000, 5.310454252379550E+08, -5.641307275816644E+08, 1.643816588782544E+08,
2460042.500000000, A.D. 2023-Apr-08 00:00:00.0000, 5.366288080797890E+08, -5.590227576182950E+08, 1.659947579562411E+08,
2460049.500000000, A.D. 2023-Apr-15 00:00:00.0000, 5.421598117983313E+08, -5.538602458589900E+08, 1.675916485856498E+08,
2460056.500000000, A.D. 2023-Apr-22 00:00:00.0000, 5.476379940868057E+08, -5.486437904932587E+08, 1.691722042297131E+08,
2460063.500000000, A.D. 2023-Apr-29 00:00:00.0000, 5.530629175974144E+08, -5.433739926107081E+08, 1.707363003832858E+08,
2460070.500000000, A.D. 2023-May-06 00:00:00.0000, 5.584341506955221E+08, -5.380514563775724E+08, 1.722838144817851E+08,
2460077.500000000, A.D. 2023-May-13 00:00:00.0000, 5.637512677215840E+08, -5.326767887978600E+08, 1.738146258902676E+08,
2460084.500000000, A.D. 2023-May-20 00:00:00.0000, 5.690138489950286E+08, -5.272505995501500E+08, 1.753286159108790E+08,
2460091.500000000, A.D. 2023-May-27 00:00:00.0000, 5.742214807536288E+08, -5.217735009294084E+08, 1.768256677883096E+08,
2460098.500000000, A.D. 2023-Jun-03 00:00:00.0000, 5.793737550859766E+08, -5.162461078677797E+08, 1.783056667098364E+08,
2460105.500000000, A.D. 2023-Jun-10 00:00:00.0000, 5.844702698808603E+08, -5.106690380480630E+08, 1.797684997963674E+08,
2460112.500000000, A.D. 2023-Jun-17 00:00:00.0000, 5.895106288825830E+08, -5.050429121698964E+08, 1.812140560711251E+08,
2460119.500000000, A.D. 2023-Jun-24 00:00:00.0000, 5.944944421722430E+08, -4.993683543129275E+08, 1.826422263809012E+08,
2460126.500000000, A.D. 2023-Jul-01 00:00:00.0000, 5.994213273282355E+08, -4.936459915687975E+08, 1.840529033141599E+08,
2460133.500000000, A.D. 2023-Jul-08 00:00:00.0000, 6.042909095921445E+08, -4.878764521199394E+08, 1.854459813366532E+08,
2460140.500000000, A.D. 2023-Jul-15 00:00:00.0000, 6.091028197632508E+08, -4.820603645951145E+08, 1.868213570303303E+08,
2460147.500000000, A.D. 2023-Jul-22 00:00:00.0000, 6.138566933428620E+08, -4.761983597360269E+08, 1.881789290278532E+08,
$$EOE